{
  "type": "FeatureCollection",
  "features": [
    {
      "type": "Feature",
      "properties": {
        "norad_id": 33860,
        "name": "IRIDIUM 33 DEB",
        "group": "iridium-33-debris",
        "lat": 4.55393936823183,
        "lon": 29.650194342636464,
        "alt_km": 666.5077349673656,
        "timestamp": "2025-12-07T22:37:43.466144+00:00",
        "meta_object_name": "IRIDIUM 33 DEB",
        "meta_object_id": "1997-051AD",
        "meta_epoch": "2025-12-06T21:13:29.814240",
        "meta_mean_motion": 14.67255525,
        "meta_eccentricity": 0.00082345,
        "meta_inclination": 86.3839,
        "meta_ra_of_asc_node": 29.8298,
        "meta_arg_of_pericenter": 17.2013,
        "meta_mean_anomaly": 160.0109,
        "meta_ephemeris_type": 0,
        "meta_classification_type": "U",
        "meta_norad_cat_id": 33860,
        "meta_element_set_no": 999,
        "meta_rev_at_epoch": 88636,
        "meta_bstar": 0.0021693873,
        "meta_mean_motion_dot": 0.00012261,
        "meta_mean_motion_ddot": 0,
        "tle_line1": "1 33860U 97051AD  25340.88437285  .00012261  00000+0  21694-2 0  9996",
        "tle_line2": "2 33860  86.3839  29.8298 0008234  17.2013 160.0109 14.67255525886368"
      },
      "geometry": {
        "type": "Point",
        "coordinates": [
          29.650194342636464,
          4.55393936823183
        ]
      }
    },
    {
      "type": "Feature",
      "properties": {
        "norad_id": 33862,
        "name": "IRIDIUM 33 DEB",
        "group": "iridium-33-debris",
        "lat": 3.1212022232319776,
        "lon": 39.841760652162186,
        "alt_km": 660.2149626359251,
        "timestamp": "2025-12-07T22:37:43.466156+00:00",
        "meta_object_name": "IRIDIUM 33 DEB",
        "meta_object_id": "1997-051AF",
        "meta_epoch": "2025-12-07T03:07:54.500160",
        "meta_mean_motion": 14.69339991,
        "meta_eccentricity": 0.00538338,
        "meta_inclination": 86.4091,
        "meta_ra_of_asc_node": 40.0036,
        "meta_arg_of_pericenter": 87.8987,
        "meta_mean_anomaly": 301.5892,
        "meta_ephemeris_type": 0,
        "meta_classification_type": "U",
        "meta_norad_cat_id": 33862,
        "meta_element_set_no": 999,
        "meta_rev_at_epoch": 88741,
        "meta_bstar": 0.0022160493,
        "meta_mean_motion_dot": 0.00013418,
        "meta_mean_motion_ddot": 0,
        "tle_line1": "1 33862U 97051AF  25341.13049190  .00013418  00000+0  22160-2 0  9995",
        "tle_line2": "2 33862  86.4091  40.0036 0053833  87.8987 301.5892 14.69339991887414"
      },
      "geometry": {
        "type": "Point",
        "coordinates": [
          39.841760652162186,
          3.1212022232319776
        ]
      }
    },
    {
      "type": "Feature",
      "properties": {
        "norad_id": 33866,
        "name": "IRIDIUM 33 DEB",
        "group": "iridium-33-debris",
        "lat": 70.41554751489949,
        "lon": -95.41256091970358,
        "alt_km": 768.7130480788492,
        "timestamp": "2025-12-07T22:37:43.466168+00:00",
        "meta_object_name": "IRIDIUM 33 DEB",
        "meta_object_id": "1997-051AK",
        "meta_epoch": "2025-12-07T07:04:59.173248",
        "meta_mean_motion": 14.25246187,
        "meta_eccentricity": 0.01140398,
        "meta_inclination": 86.3005,
        "meta_ra_of_asc_node": 95.3392,
        "meta_arg_of_pericenter": 178.7496,
        "meta_mean_anomaly": 210.2854,
        "meta_ephemeris_type": 0,
        "meta_classification_type": "U",
        "meta_norad_cat_id": 33866,
        "meta_element_set_no": 999,
        "meta_rev_at_epoch": 86733,
        "meta_bstar": 0.0012304982,
        "meta_mean_motion_dot": 3.115e-05,
        "meta_mean_motion_ddot": 0,
        "tle_line1": "1 33866U 97051AK  25341.29512932  .00003115  00000+0  12305-2 0  9998",
        "tle_line2": "2 33866  86.3005  95.3392 0114039 178.7496 210.2854 14.25246187867330"
      },
      "geometry": {
        "type": "Point",
        "coordinates": [
          -95.41256091970358,
          70.41554751489949
        ]
      }
    },
    {
      "type": "Feature",
      "properties": {
        "norad_id": 33867,
        "name": "IRIDIUM 33 DEB",
        "group": "iridium-33-debris",
        "lat": -77.20029364086912,
        "lon": -23.680416643119663,
        "alt_km": 403.7694434602354,
        "timestamp": "2025-12-07T22:37:43.466179+00:00",
        "meta_object_name": "IRIDIUM 33 DEB",
        "meta_object_id": "1997-051AL",
        "meta_epoch": "2025-12-06T23:51:25.855200",
        "meta_mean_motion": 15.58581253,
        "meta_eccentricity": 0.00124601,
        "meta_inclination": 86.3623,
        "meta_ra_of_asc_node": 353.0684,
        "meta_arg_of_pericenter": 93.0935,
        "meta_mean_anomaly": 267.1755,
        "meta_ephemeris_type": 0,
        "meta_classification_type": "U",
        "meta_norad_cat_id": 33867,
        "meta_element_set_no": 999,
        "meta_rev_at_epoch": 89421,
        "meta_bstar": 0.0084503515,
        "meta_mean_motion_dot": 0.0070536,
        "meta_mean_motion_ddot": 0,
        "tle_line1": "1 33867U 97051AL  25340.99404925  .00705360  00000+0  84504-2 0  9998",
        "tle_line2": "2 33867  86.3623 353.0684 0012460  93.0935 267.1755 15.58581253894218"
      },
      "geometry": {
        "type": "Point",
        "coordinates": [
          -23.680416643119663,
          -77.20029364086912
        ]
      }
    },
    {
      "type": "Feature",
      "properties": {
        "norad_id": 33870,
        "name": "IRIDIUM 33 DEB",
        "group": "iridium-33-debris",
        "lat": -34.60320680907276,
        "lon": -117.17619959701294,
        "alt_km": 731.769516807045,
        "timestamp": "2025-12-07T22:37:43.466190+00:00",
        "meta_object_name": "IRIDIUM 33 DEB",
        "meta_object_id": "1997-051AP",
        "meta_epoch": "2025-12-07T05:10:40.013760",
        "meta_mean_motion": 14.45805059,
        "meta_eccentricity": 0.00208785,
        "meta_inclination": 86.3751,
        "meta_ra_of_asc_node": 60.6286,
        "meta_arg_of_pericenter": 196.3366,
        "meta_mean_anomaly": 195.9622,
        "meta_ephemeris_type": 0,
        "meta_classification_type": "U",
        "meta_norad_cat_id": 33870,
        "meta_element_set_no": 999,
        "meta_rev_at_epoch": 88057,
        "meta_bstar": 0.0013518348,
        "meta_mean_motion_dot": 4.826e-05,
        "meta_mean_motion_ddot": 0,
        "tle_line1": "1 33870U 97051AP  25341.21574090  .00004826  00000+0  13518-2 0  9995",
        "tle_line2": "2 33870  86.3751  60.6286 0020878 196.3366 195.9622 14.45805059880573"
      },
      "geometry": {
        "type": "Point",
        "coordinates": [
          -117.17619959701294,
          -34.60320680907276
        ]
      }
    },
    {
      "type": "Feature",
      "properties": {
        "norad_id": 33881,
        "name": "IRIDIUM 33 DEB",
        "group": "iridium-33-debris",
        "lat": -78.8320132156578,
        "lon": -52.50855245813221,
        "alt_km": 696.5182564262605,
        "timestamp": "2025-12-07T22:37:43.466202+00:00",
        "meta_object_name": "IRIDIUM 33 DEB",
        "meta_object_id": "1997-051BA",
        "meta_epoch": "2025-12-06T21:17:41.557056",
        "meta_mean_motion": 14.5641101,
        "meta_eccentricity": 0.00613255,
        "meta_inclination": 86.3871,
        "meta_ra_of_asc_node": 109.2851,
        "meta_arg_of_pericenter": 193.6863,
        "meta_mean_anomaly": 294.0884,
        "meta_ephemeris_type": 0,
        "meta_classification_type": "U",
        "meta_norad_cat_id": 33881,
        "meta_element_set_no": 999,
        "meta_rev_at_epoch": 87415,
        "meta_bstar": 0.0034816838,
        "meta_mean_motion_dot": 0.00015893,
        "meta_mean_motion_ddot": 0,
        "tle_line1": "1 33881U 97051BA  25340.88728654  .00015893  00000+0  34817-2 0  9997",
        "tle_line2": "2 33881  86.3871 109.2851 0061325 193.6863 294.0884 14.56411010874150"
      },
      "geometry": {
        "type": "Point",
        "coordinates": [
          -52.50855245813221,
          -78.8320132156578
        ]
      }
    },
    {
      "type": "Feature",
      "properties": {
        "norad_id": 33884,
        "name": "IRIDIUM 33 DEB",
        "group": "iridium-33-debris",
        "lat": -25.8276417719814,
        "lon": -166.25520080410718,
        "alt_km": 648.8558593763,
        "timestamp": "2025-12-07T22:37:43.466213+00:00",
        "meta_object_name": "IRIDIUM 33 DEB",
        "meta_object_id": "1997-051BD",
        "meta_epoch": "2025-12-07T02:18:32.632992",
        "meta_mean_motion": 14.7726693,
        "meta_eccentricity": 0.00102292,
        "meta_inclination": 86.3688,
        "meta_ra_of_asc_node": 12.3655,
        "meta_arg_of_pericenter": 345.137,
        "meta_mean_anomaly": 40.9954,
        "meta_ephemeris_type": 0,
        "meta_classification_type": "U",
        "meta_norad_cat_id": 33884,
        "meta_element_set_no": 999,
        "meta_rev_at_epoch": 88764,
        "meta_bstar": 0.0021152587,
        "meta_mean_motion_dot": 0.00015051,
        "meta_mean_motion_ddot": 0,
        "tle_line1": "1 33884U 97051BD  25341.09621103  .00015051  00000+0  21153-2 0  9990",
        "tle_line2": "2 33884  86.3688  12.3655 0010229 345.1370  40.9954 14.77266930887645"
      },
      "geometry": {
        "type": "Point",
        "coordinates": [
          -166.25520080410718,
          -25.8276417719814
        ]
      }
    }
  ]
}